[{"OBJECT_NAME":"STARLINK-36957","OBJECT_ID":"2026-039D","EPOCH":"2026-03-17T06:00:02.000160","MEAN_MOTION":15.70759308,"ECCENTRICITY":0.00013893,"INCLINATION":42.9999,"RA_OF_ASC_NODE":8.7089,"ARG_OF_PERICENTER":261.4535,"MEAN_ANOMALY":13.0204,"EPHEMERIS_TYPE":0,"CLASSIFICATION_TYPE":"U","NORAD_CAT_ID":67989,"ELEMENT_SET_NO":999,"REV_AT_EPOCH":409,"BSTAR":-0.016606909,"MEAN_MOTION_DOT":-0.01887165,"MEAN_MOTION_DDOT":0},{"OBJECT_NAME":"STARLINK-36951","OBJECT_ID":"2026-039E","EPOCH":"2026-03-17T06:00:02.000160","MEAN_MOTION":15.66733665,"ECCENTRICITY":0.00011688,"INCLINATION":42.9999,"RA_OF_ASC_NODE":8.8124,"ARG_OF_PERICENTER":259.3965,"MEAN_ANOMALY":333.7067,"EPHEMERIS_TYPE":0,"CLASSIFICATION_TYPE":"U","NORAD_CAT_ID":67990,"ELEMENT_SET_NO":999,"REV_AT_EPOCH":409,"BSTAR":-0.019134265,"MEAN_MOTION_DOT":-0.01843762,"MEAN_MOTION_DDOT":0},{"OBJECT_NAME":"STARLINK-36941","OBJECT_ID":"2026-039F","EPOCH":"2026-03-17T06:00:02.000160","MEAN_MOTION":15.53738914,"ECCENTRICITY":0.0001652,"INCLINATION":43.0001,"RA_OF_ASC_NODE":9.4059,"ARG_OF_PERICENTER":257.537,"MEAN_ANOMALY":96.3098,"EPHEMERIS_TYPE":0,"CLASSIFICATION_TYPE":"U","NORAD_CAT_ID":67991,"ELEMENT_SET_NO":999,"REV_AT_EPOCH":409,"BSTAR":-0.031445997,"MEAN_MOTION_DOT":-0.01831917,"MEAN_MOTION_DDOT":0},{"OBJECT_NAME":"STARLINK-36950","OBJECT_ID":"2026-039G","EPOCH":"2026-03-17T06:00:02.000160","MEAN_MOTION":15.59215621,"ECCENTRICITY":0.00013079,"INCLINATION":42.9996,"RA_OF_ASC_NODE":9.0959,"ARG_OF_PERICENTER":276.9887,"MEAN_ANOMALY":201.622,"EPHEMERIS_TYPE":0,"CLASSIFICATION_TYPE":"U","NORAD_CAT_ID":67992,"ELEMENT_SET_NO":999,"REV_AT_EPOCH":409,"BSTAR":-0.025714613,"MEAN_MOTION_DOT":-0.0183962,"MEAN_MOTION_DDOT":0},{"OBJECT_NAME":"STARLINK-36975","OBJECT_ID":"2026-039H","EPOCH":"2026-03-17T06:00:02.000160","MEAN_MOTION":15.60509081,"ECCENTRICITY":0.00012799,"INCLINATION":42.9998,"RA_OF_ASC_NODE":9.0245,"ARG_OF_PERICENTER":270.5854,"MEAN_ANOMALY":236.9032,"EPHEMERIS_TYPE":0,"CLASSIFICATION_TYPE":"U","NORAD_CAT_ID":67993,"ELEMENT_SET_NO":999,"REV_AT_EPOCH":409,"BSTAR":-0.024512736,"MEAN_MOTION_DOT":-0.0184307,"MEAN_MOTION_DDOT":0},{"OBJECT_NAME":"STARLINK-36993","OBJECT_ID":"2026-039J","EPOCH":"2026-03-17T06:00:02.000160","MEAN_MOTION":15.70961473,"ECCENTRICITY":0.0001545,"INCLINATION":43,"RA_OF_ASC_NODE":8.6505,"ARG_OF_PERICENTER":264.4866,"MEAN_ANOMALY":33.2857,"EPHEMERIS_TYPE":0,"CLASSIFICATION_TYPE":"U","NORAD_CAT_ID":67994,"ELEMENT_SET_NO":999,"REV_AT_EPOCH":409,"BSTAR":-0.016461518,"MEAN_MOTION_DOT":-0.0185005,"MEAN_MOTION_DDOT":0},{"OBJECT_NAME":"STARLINK-36968","OBJECT_ID":"2026-039K","EPOCH":"2026-03-17T06:00:02.000160","MEAN_MOTION":15.57039203,"ECCENTRICITY":0.00014928,"INCLINATION":42.9993,"RA_OF_ASC_NODE":9.1641,"ARG_OF_PERICENTER":272.6613,"MEAN_ANOMALY":178.2968,"EPHEMERIS_TYPE":0,"CLASSIFICATION_TYPE":"U","NORAD_CAT_ID":67995,"ELEMENT_SET_NO":999,"REV_AT_EPOCH":409,"BSTAR":-0.027948613,"MEAN_MOTION_DOT":-0.01840312,"MEAN_MOTION_DDOT":0},{"OBJECT_NAME":"STARLINK-36979","OBJECT_ID":"2026-039L","EPOCH":"2026-03-17T06:00:02.000160","MEAN_MOTION":15.72552138,"ECCENTRICITY":0.0001533,"INCLINATION":43.0001,"RA_OF_ASC_NODE":8.6045,"ARG_OF_PERICENTER":265.9395,"MEAN_ANOMALY":50.07,"EPHEMERIS_TYPE":0,"CLASSIFICATION_TYPE":"U","NORAD_CAT_ID":67996,"ELEMENT_SET_NO":999,"REV_AT_EPOCH":409,"BSTAR":-0.015462785,"MEAN_MOTION_DOT":-0.01859147,"MEAN_MOTION_DDOT":0},{"OBJECT_NAME":"STARLINK-36994","OBJECT_ID":"2026-039M","EPOCH":"2026-03-17T06:00:02.000160","MEAN_MOTION":15.66621999,"ECCENTRICITY":0.00015298,"INCLINATION":42.9999,"RA_OF_ASC_NODE":8.7285,"ARG_OF_PERICENTER":264.5924,"MEAN_ANOMALY":1.0302,"EPHEMERIS_TYPE":0,"CLASSIFICATION_TYPE":"U","NORAD_CAT_ID":67997,"ELEMENT_SET_NO":999,"REV_AT_EPOCH":409,"BSTAR":-0.019517807,"MEAN_MOTION_DOT":-0.01869215,"MEAN_MOTION_DDOT":0},{"OBJECT_NAME":"STARLINK-36988","OBJECT_ID":"2026-039N","EPOCH":"2026-03-17T06:00:02.000160","MEAN_MOTION":15.67658241,"ECCENTRICITY":0.00015057,"INCLINATION":42.9998,"RA_OF_ASC_NODE":8.7066,"ARG_OF_PERICENTER":262.4394,"MEAN_ANOMALY":12.1461,"EPHEMERIS_TYPE":0,"CLASSIFICATION_TYPE":"U","NORAD_CAT_ID":67998,"ELEMENT_SET_NO":999,"REV_AT_EPOCH":409,"BSTAR":-0.01873662,"MEAN_MOTION_DOT":-0.01872065,"MEAN_MOTION_DDOT":0},{"OBJECT_NAME":"STARLINK-36926","OBJECT_ID":"2026-039P","EPOCH":"2026-03-17T06:00:02.000160","MEAN_MOTION":15.66781188,"ECCENTRICITY":0.00015644,"INCLINATION":42.9998,"RA_OF_ASC_NODE":8.7117,"ARG_OF_PERICENTER":259.6749,"MEAN_ANOMALY":12.6962,"EPHEMERIS_TYPE":0,"CLASSIFICATION_TYPE":"U","NORAD_CAT_ID":67999,"ELEMENT_SET_NO":999,"REV_AT_EPOCH":409,"BSTAR":-0.01904066,"MEAN_MOTION_DOT":-0.01839178,"MEAN_MOTION_DDOT":0},{"OBJECT_NAME":"STARLINK-36931","OBJECT_ID":"2026-039Q","EPOCH":"2026-03-17T06:00:02.000160","MEAN_MOTION":15.70872606,"ECCENTRICITY":0.00015534,"INCLINATION":42.9997,"RA_OF_ASC_NODE":8.5879,"ARG_OF_PERICENTER":266.2222,"MEAN_ANOMALY":56.3083,"EPHEMERIS_TYPE":0,"CLASSIFICATION_TYPE":"U","NORAD_CAT_ID":68000,"ELEMENT_SET_NO":999,"REV_AT_EPOCH":409,"BSTAR":-0.016564706,"MEAN_MOTION_DOT":-0.01891088,"MEAN_MOTION_DDOT":0},{"OBJECT_NAME":"STARLINK-36903","OBJECT_ID":"2026-039R","EPOCH":"2026-03-17T06:00:02.000160","MEAN_MOTION":15.66689111,"ECCENTRICITY":0.00014032,"INCLINATION":42.9998,"RA_OF_ASC_NODE":8.6935,"ARG_OF_PERICENTER":262.2496,"MEAN_ANOMALY":17.1452,"EPHEMERIS_TYPE":0,"CLASSIFICATION_TYPE":"U","NORAD_CAT_ID":68001,"ELEMENT_SET_NO":999,"REV_AT_EPOCH":409,"BSTAR":-0.019378321,"MEAN_MOTION_DOT":-0.01861792,"MEAN_MOTION_DDOT":0},{"OBJECT_NAME":"STARLINK-36898","OBJECT_ID":"2026-039S","EPOCH":"2026-03-17T06:00:02.000160","MEAN_MOTION":15.69758841,"ECCENTRICITY":0.0001534,"INCLINATION":43,"RA_OF_ASC_NODE":8.5825,"ARG_OF_PERICENTER":265.0465,"MEAN_ANOMALY":59.0609,"EPHEMERIS_TYPE":0,"CLASSIFICATION_TYPE":"U","NORAD_CAT_ID":68002,"ELEMENT_SET_NO":999,"REV_AT_EPOCH":409,"BSTAR":-0.017416493,"MEAN_MOTION_DOT":-0.01896245,"MEAN_MOTION_DDOT":0},{"OBJECT_NAME":"STARLINK-36862","OBJECT_ID":"2026-039T","EPOCH":"2026-03-17T06:00:02.000160","MEAN_MOTION":15.67614702,"ECCENTRICITY":0.00014909,"INCLINATION":43.0002,"RA_OF_ASC_NODE":8.6222,"ARG_OF_PERICENTER":263.8347,"MEAN_ANOMALY":44.4396,"EPHEMERIS_TYPE":0,"CLASSIFICATION_TYPE":"U","NORAD_CAT_ID":68003,"ELEMENT_SET_NO":999,"REV_AT_EPOCH":409,"BSTAR":-0.018715095,"MEAN_MOTION_DOT":-0.01867161,"MEAN_MOTION_DDOT":0},{"OBJECT_NAME":"STARLINK-36888","OBJECT_ID":"2026-039U","EPOCH":"2026-03-17T06:00:02.000160","MEAN_MOTION":15.672869,"ECCENTRICITY":0.00015095,"INCLINATION":42.9999,"RA_OF_ASC_NODE":8.6639,"ARG_OF_PERICENTER":260.6689,"MEAN_ANOMALY":30.6747,"EPHEMERIS_TYPE":0,"CLASSIFICATION_TYPE":"U","NORAD_CAT_ID":68004,"ELEMENT_SET_NO":999,"REV_AT_EPOCH":409,"BSTAR":-0.018951459,"MEAN_MOTION_DOT":-0.01865594,"MEAN_MOTION_DDOT":0}]
