STARLINK-36957          
1 67989U 26039D   26076.25002315 -.01887165  00000+0 -16607-1 0  9996
2 67989  42.9999   8.7089 0001389 261.4535  13.0204 15.70759308  4090
STARLINK-36951          
1 67990U 26039E   26076.25002315 -.01843762  00000+0 -19134-1 0  9991
2 67990  42.9999   8.8124 0001168 259.3965 333.7067 15.66733665  4093
STARLINK-36941          
1 67991U 26039F   26076.25002315 -.01831917  00000+0 -31446-1 0  9991
2 67991  43.0001   9.4059 0001652 257.5370  96.3098 15.53738914  4096
STARLINK-36950          
1 67992U 26039G   26076.25002315 -.01839620  00000+0 -25715-1 0  9993
2 67992  42.9996   9.0959 0001307 276.9887 201.6220 15.59215621  4097
STARLINK-36975          
1 67993U 26039H   26076.25002315 -.01843070  00000+0 -24513-1 0  9993
2 67993  42.9998   9.0245 0001279 270.5854 236.9032 15.60509081  4090
STARLINK-36993          
1 67994U 26039J   26076.25002315 -.01850050  00000+0 -16462-1 0  9994
2 67994  43.0000   8.6505 0001545 264.4866  33.2857 15.70961473  4093
STARLINK-36968          
1 67995U 26039K   26076.25002315 -.01840312  00000+0 -27949-1 0  9997
2 67995  42.9993   9.1641 0001492 272.6613 178.2968 15.57039203  4097
STARLINK-36979          
1 67996U 26039L   26076.25002315 -.01859147  00000+0 -15463-1 0  9992
2 67996  43.0001   8.6045 0001533 265.9395  50.0700 15.72552138  4095
STARLINK-36994          
1 67997U 26039M   26076.25002315 -.01869215  00000+0 -19518-1 0  9995
2 67997  42.9999   8.7285 0001529 264.5924   1.0302 15.66621999  4094
STARLINK-36988          
1 67998U 26039N   26076.25002315 -.01872065  00000+0 -18737-1 0  9995
2 67998  42.9998   8.7066 0001505 262.4394  12.1461 15.67658241  4093
STARLINK-36926          
1 67999U 26039P   26076.25002315 -.01839178  00000+0 -19041-1 0  9993
2 67999  42.9998   8.7117 0001564 259.6749  12.6962 15.66781188  4095
STARLINK-36931          
1 68000U 26039Q   26076.25002315 -.01891088  00000+0 -16565-1 0  9993
2 68000  42.9997   8.5879 0001553 266.2222  56.3083 15.70872606  4099
STARLINK-36903          
1 68001U 26039R   26076.25002315 -.01861792  00000+0 -19378-1 0  9998
2 68001  42.9998   8.6935 0001403 262.2496  17.1452 15.66689111  4095
STARLINK-36898          
1 68002U 26039S   26076.25002315 -.01896245  00000+0 -17416-1 0  9991
2 68002  43.0000   8.5825 0001534 265.0465  59.0609 15.69758841  4090
STARLINK-36862          
1 68003U 26039T   26076.25002315 -.01867161  00000+0 -18715-1 0  9990
2 68003  43.0002   8.6222 0001490 263.8347  44.4396 15.67614702  4097
STARLINK-36888          
1 68004U 26039U   26076.25002315 -.01865594  00000+0 -18951-1 0  9991
2 68004  42.9999   8.6639 0001509 260.6689  30.6747 15.67286900  4090
